STARLINK-3295           
1 50840U 22001AP  26068.61348982  .00000253  00000+0  33961-4 0  9990
2 50840  53.2186 179.4655 0001342  91.7622 268.3524 15.08841577230245
LEMUR-2-SIERRINI        
1 60579U 24149DR  26068.80891719  .00014386  00000+0  92040-3 0  9991
2 60579  97.6873 151.1225 0006580 147.8458 212.3173 15.08682764 85461
